[{"OBJECT_NAME":"STARLINK-34698","OBJECT_ID":"2025-259Z","EPOCH":"2026-03-09T22:14:30.459552","MEAN_MOTION":15.27574666,"ECCENTRICITY":0.00016072,"INCLINATION":42.9968,"RA_OF_ASC_NODE":273.3385,"ARG_OF_PERICENTER":242.2652,"MEAN_ANOMALY":117.8036,"EPHEMERIS_TYPE":0,"CLASSIFICATION_TYPE":"U","NORAD_CAT_ID":66445,"ELEMENT_SET_NO":999,"REV_AT_EPOCH":1941,"BSTAR":0.00091387955,"MEAN_MOTION_DOT":0.00024967,"MEAN_MOTION_DDOT":0},{"OBJECT_NAME":"SIMSAT 2","OBJECT_ID":"2000-026B","EPOCH":"2026-03-09T20:25:01.673184","MEAN_MOTION":15.29036787,"ECCENTRICITY":0.00037035,"INCLINATION":86.3514,"RA_OF_ASC_NODE":176.4271,"ARG_OF_PERICENTER":287.9875,"MEAN_ANOMALY":72.0969,"EPHEMERIS_TYPE":0,"CLASSIFICATION_TYPE":"U","NORAD_CAT_ID":26366,"ELEMENT_SET_NO":999,"REV_AT_EPOCH":42803,"BSTAR":0.00013465771,"MEAN_MOTION_DOT":3.833e-5,"MEAN_MOTION_DDOT":0}]
